0 COSMOS 1275 DEB
1 13022U 81053EU  13281.67813399  .00000666  00000-0  35178-3 0  6639
2 13022 082.9213 344.9338 0048932 138.5361 346.0715 14.11819238630410
0 COSMOS 1275 DEB
1 13022U 81053EU  13283.93337979  .00000759  00000-0  40267-3 0  6644
2 13022 082.9212 343.1515 0048946 132.0076 288.3231 14.11823962630739
0 COSMOS 1275 DEB
1 13022U 81053EU  13286.63892191  .00000749  00000-0  39723-3 0  6651
2 13022 082.9207 341.0137 0048870 124.2380 359.1781 14.11827243631113
0 COSMOS 1275 DEB
1 13022U 81053EU  13289.17657263  .00000809  00000-0  42953-3 0  6669
2 13022 082.9200 339.0084 0048732 116.9665 296.7472 14.11833334631475
0 COSMOS 1275 DEB
1 13022U 81053EU  13291.31734795  .00000763  00000-0  40468-3 0  6673
2 13022 082.9197 337.3164 0048578 110.8260 017.2486 14.11836572631773
0 COSMOS 1275 DEB
1 13022U 81053EU  13293.43062795  .00000804  00000-0  42653-3 0  6687
2 13022 082.9196 335.6458 0048448 104.7312 318.0650 14.11839893632073
0 COSMOS 1275 DEB
1 13022U 81053EU  13295.57673131  .00000874  00000-0  46453-3 0  6696
2 13022 082.9194 333.9493 0048392 098.5452 065.7310 14.11843326632372
